{
  "type": "FeatureCollection",
  "features": [
    {
      "type": "Feature",
      "properties": {
        "norad_id": 66968,
        "name": "STARLINK-36152",
        "group": "last-30-days",
        "lat": -13.710889417648511,
        "lon": 84.43040572791615,
        "alt_km": 354.9950850419782,
        "timestamp": "2025-12-23T18:59:30.759662+00:00",
        "meta_object_name": "STARLINK-36152",
        "meta_object_id": "2025-288K",
        "meta_epoch": "2025-12-23T06:00:00.999648",
        "meta_mean_motion": 15.74025002,
        "meta_eccentricity": 0.00010052,
        "meta_inclination": 43.0005,
        "meta_ra_of_asc_node": 102.8825,
        "meta_arg_of_pericenter": 266.531,
        "meta_mean_anomaly": 244.3194,
        "meta_ephemeris_type": 0,
        "meta_classification_type": "U",
        "meta_norad_cat_id": 66968,
        "meta_element_set_no": 999,
        "meta_rev_at_epoch": 352,
        "meta_bstar": -0.01494881,
        "meta_mean_motion_dot": -0.01908097,
        "meta_mean_motion_ddot": 0,
        "tle_line1": "1 66968U 25288K   25357.25001157 -.01908097  00000+0 -14949-1 0  9996",
        "tle_line2": "2 66968  43.0005 102.8825 0001005 266.5310 244.3194 15.74025002  3527"
      },
      "geometry": {
        "type": "Point",
        "coordinates": [
          84.43040572791615,
          -13.710889417648511
        ]
      }
    },
    {
      "type": "Feature",
      "properties": {
        "norad_id": 66969,
        "name": "STARLINK-36149",
        "group": "last-30-days",
        "lat": -7.3138895441189575,
        "lon": 91.66734694301978,
        "alt_km": 354.3161375037598,
        "timestamp": "2025-12-23T18:59:30.759671+00:00",
        "meta_object_name": "STARLINK-36149",
        "meta_object_id": "2025-288L",
        "meta_epoch": "2025-12-23T06:00:00.999648",
        "meta_mean_motion": 15.74035704,
        "meta_eccentricity": 0.00012118,
        "meta_inclination": 43.0004,
        "meta_ra_of_asc_node": 102.8584,
        "meta_arg_of_pericenter": 271.0091,
        "meta_mean_anomaly": 249.4206,
        "meta_ephemeris_type": 0,
        "meta_classification_type": "U",
        "meta_norad_cat_id": 66969,
        "meta_element_set_no": 999,
        "meta_rev_at_epoch": 352,
        "meta_bstar": -0.015059677,
        "meta_mean_motion_dot": -0.01921264,
        "meta_mean_motion_ddot": 0,
        "tle_line1": "1 66969U 25288L   25357.25001157 -.01921264  00000+0 -15060-1 0  9993",
        "tle_line2": "2 66969  43.0004 102.8584 0001211 271.0091 249.4206 15.74035704  3525"
      },
      "geometry": {
        "type": "Point",
        "coordinates": [
          91.66734694301978,
          -7.3138895441189575
        ]
      }
    },
    {
      "type": "Feature",
      "properties": {
        "norad_id": 66970,
        "name": "STARLINK-35703",
        "group": "last-30-days",
        "lat": -2.1080380466275788,
        "lon": 97.30080643220977,
        "alt_km": 353.68512083338646,
        "timestamp": "2025-12-23T18:59:30.759681+00:00",
        "meta_object_name": "STARLINK-35703",
        "meta_object_id": "2025-288M",
        "meta_epoch": "2025-12-23T06:00:00.999648",
        "meta_mean_motion": 15.74033492,
        "meta_eccentricity": 0.00012904,
        "meta_inclination": 43.0006,
        "meta_ra_of_asc_node": 102.8388,
        "meta_arg_of_pericenter": 274.9565,
        "meta_mean_anomaly": 253.1348,
        "meta_ephemeris_type": 0,
        "meta_classification_type": "U",
        "meta_norad_cat_id": 66970,
        "meta_element_set_no": 999,
        "meta_rev_at_epoch": 352,
        "meta_bstar": -0.014981138,
        "meta_mean_motion_dot": -0.01912525,
        "meta_mean_motion_ddot": 0,
        "tle_line1": "1 66970U 25288M   25357.25001157 -.01912525  00000+0 -14981-1 0  9996",
        "tle_line2": "2 66970  43.0006 102.8388 0001290 274.9565 253.1348 15.74033492  3527"
      },
      "geometry": {
        "type": "Point",
        "coordinates": [
          97.30080643220977,
          -2.1080380466275788
        ]
      }
    },
    {
      "type": "Feature",
      "properties": {
        "norad_id": 66971,
        "name": "STARLINK-35678",
        "group": "last-30-days",
        "lat": -12.441613552831374,
        "lon": 85.90901287267751,
        "alt_km": 354.82111778733906,
        "timestamp": "2025-12-23T18:59:30.759691+00:00",
        "meta_object_name": "STARLINK-35678",
        "meta_object_id": "2025-288N",
        "meta_epoch": "2025-12-23T06:00:00.999648",
        "meta_mean_motion": 15.74005697,
        "meta_eccentricity": 0.0001301,
        "meta_inclination": 43.0003,
        "meta_ra_of_asc_node": 102.8787,
        "meta_arg_of_pericenter": 264.6941,
        "meta_mean_anomaly": 248.0826,
        "meta_ephemeris_type": 0,
        "meta_classification_type": "U",
        "meta_norad_cat_id": 66971,
        "meta_element_set_no": 999,
        "meta_rev_at_epoch": 352,
        "meta_bstar": -0.014746951,
        "meta_mean_motion_dot": -0.01884671,
        "meta_mean_motion_ddot": 0,
        "tle_line1": "1 66971U 25288N   25357.25001157 -.01884671  00000+0 -14747-1 0  9997",
        "tle_line2": "2 66971  43.0003 102.8787 0001301 264.6941 248.0826 15.74005697  3525"
      },
      "geometry": {
        "type": "Point",
        "coordinates": [
          85.90901287267751,
          -12.441613552831374
        ]
      }
    },
    {
      "type": "Feature",
      "properties": {
        "norad_id": 66972,
        "name": "STARLINK-34846",
        "group": "last-30-days",
        "lat": -11.171078685056807,
        "lon": 87.36432153206177,
        "alt_km": 354.5780412144222,
        "timestamp": "2025-12-23T18:59:30.759701+00:00",
        "meta_object_name": "STARLINK-34846",
        "meta_object_id": "2025-288P",
        "meta_epoch": "2025-12-23T06:00:00.999648",
        "meta_mean_motion": 15.74026245,
        "meta_eccentricity": 0.00014001,
        "meta_inclination": 43.0004,
        "meta_ra_of_asc_node": 102.8736,
        "meta_arg_of_pericenter": 271.0304,
        "meta_mean_anomaly": 243.6531,
        "meta_ephemeris_type": 0,
        "meta_classification_type": "U",
        "meta_norad_cat_id": 66972,
        "meta_element_set_no": 999,
        "meta_rev_at_epoch": 352,
        "meta_bstar": -0.014970427,
        "meta_mean_motion_dot": -0.0191092,
        "meta_mean_motion_ddot": 0,
        "tle_line1": "1 66972U 25288P   25357.25001157 -.01910920  00000+0 -14970-1 0  9993",
        "tle_line2": "2 66972  43.0004 102.8736 0001400 271.0304 243.6531 15.74026245  3522"
      },
      "geometry": {
        "type": "Point",
        "coordinates": [
          87.36432153206177,
          -11.171078685056807
        ]
      }
    },
    {
      "type": "Feature",
      "properties": {
        "norad_id": 66973,
        "name": "STARLINK-35778",
        "group": "last-30-days",
        "lat": -9.889732197646875,
        "lon": 88.81188128334831,
        "alt_km": 354.5379455268876,
        "timestamp": "2025-12-23T18:59:30.759710+00:00",
        "meta_object_name": "STARLINK-35778",
        "meta_object_id": "2025-288Q",
        "meta_epoch": "2025-12-23T06:00:00.999648",
        "meta_mean_motion": 15.74026749,
        "meta_eccentricity": 0.00015428,
        "meta_inclination": 43.0004,
        "meta_ra_of_asc_node": 102.8693,
        "meta_arg_of_pericenter": 267.1303,
        "meta_mean_anomaly": 249.4661,
        "meta_ephemeris_type": 0,
        "meta_classification_type": "U",
        "meta_norad_cat_id": 66973,
        "meta_element_set_no": 999,
        "meta_rev_at_epoch": 352,
        "meta_bstar": -0.014952478,
        "meta_mean_motion_dot": -0.01909108,
        "meta_mean_motion_ddot": 0,
        "tle_line1": "1 66973U 25288Q   25357.25001157 -.01909108  00000+0 -14952-1 0  9990",
        "tle_line2": "2 66973  43.0004 102.8693 0001542 267.1303 249.4661 15.74026749  3524"
      },
      "geometry": {
        "type": "Point",
        "coordinates": [
          88.81188128334831,
          -9.889732197646875
        ]
      }
    },
    {
      "type": "Feature",
      "properties": {
        "norad_id": 66974,
        "name": "STARLINK-35780",
        "group": "last-30-days",
        "lat": -8.605795129110213,
        "lon": 90.24329484540452,
        "alt_km": 354.555334798074,
        "timestamp": "2025-12-23T18:59:30.759719+00:00",
        "meta_object_name": "STARLINK-35780",
        "meta_object_id": "2025-288R",
        "meta_epoch": "2025-12-23T06:00:00.999648",
        "meta_mean_motion": 15.7402622,
        "meta_eccentricity": 0.00010514,
        "meta_inclination": 43.0005,
        "meta_ra_of_asc_node": 102.8641,
        "meta_arg_of_pericenter": 266.1414,
        "meta_mean_anomaly": 252.374,
        "meta_ephemeris_type": 0,
        "meta_classification_type": "U",
        "meta_norad_cat_id": 66974,
        "meta_element_set_no": 999,
        "meta_rev_at_epoch": 352,
        "meta_bstar": -0.014946577,
        "meta_mean_motion_dot": -0.01907979,
        "meta_mean_motion_ddot": 0,
        "tle_line1": "1 66974U 25288R   25357.25001157 -.01907979  00000+0 -14947-1 0  9999",
        "tle_line2": "2 66974  43.0005 102.8641 0001051 266.1414 252.3740 15.74026220  3521"
      },
      "geometry": {
        "type": "Point",
        "coordinates": [
          90.24329484540452,
          -8.605795129110213
        ]
      }
    }
  ]
}